CCSDS_OMM_VERS = 2.0
CREATION_DATE  = 
ORIGINATOR     = 

OBJECT_NAME    = STARLINK-36743
OBJECT_ID      = 2026-034AC
CENTER_NAME    = EARTH
REF_FRAME      = TEME
TIME_SYSTEM    = UTC
MEAN_ELEMENT_THEORY = SGP/SGP4

EPOCH          = 2026-02-28T06:00:02.000160
MEAN_MOTION    = 15.88892981
ECCENTRICITY   = .00007727
INCLINATION    = 53.1494
RA_OF_ASC_NODE = 258.5113
ARG_OF_PERICENTER = 68.6545
MEAN_ANOMALY   = 13.2314

EPHEMERIS_TYPE = 0
CLASSIFICATION_TYPE = U
NORAD_CAT_ID   = 67876
ELEMENT_SET_NO = 999
REV_AT_EPOCH   = 234
BSTAR          = -.56879759E-2
MEAN_MOTION_DOT = -.1438432E-1
MEAN_MOTION_DDOT = 0

CCSDS_OMM_VERS = 2.0
CREATION_DATE  = 
ORIGINATOR     = 

OBJECT_NAME    = STARLINK-36784
OBJECT_ID      = 2026-034AD
CENTER_NAME    = EARTH
REF_FRAME      = TEME
TIME_SYSTEM    = UTC
MEAN_ELEMENT_THEORY = SGP/SGP4

EPOCH          = 2026-02-28T06:00:02.000160
MEAN_MOTION    = 15.89045283
ECCENTRICITY   = .0000756
INCLINATION    = 53.1495
RA_OF_ASC_NODE = 258.5059
ARG_OF_PERICENTER = 70.3074
MEAN_ANOMALY   = 14.3251

EPHEMERIS_TYPE = 0
CLASSIFICATION_TYPE = U
NORAD_CAT_ID   = 67877
ELEMENT_SET_NO = 999
REV_AT_EPOCH   = 234
BSTAR          = -.56178082E-2
MEAN_MOTION_DOT = -.1432624E-1
MEAN_MOTION_DDOT = 0

CCSDS_OMM_VERS = 2.0
CREATION_DATE  = 
ORIGINATOR     = 

OBJECT_NAME    = STARLINK-36689
OBJECT_ID      = 2026-034AE
CENTER_NAME    = EARTH
REF_FRAME      = TEME
TIME_SYSTEM    = UTC
MEAN_ELEMENT_THEORY = SGP/SGP4

EPOCH          = 2026-02-28T06:00:02.000160
MEAN_MOTION    = 15.89196474
ECCENTRICITY   = .00007006
INCLINATION    = 53.1496
RA_OF_ASC_NODE = 258.5005
ARG_OF_PERICENTER = 75.3835
MEAN_ANOMALY   = 11.8950

EPHEMERIS_TYPE = 0
CLASSIFICATION_TYPE = U
NORAD_CAT_ID   = 67878
ELEMENT_SET_NO = 999
REV_AT_EPOCH   = 234
BSTAR          = -.55370784E-2
MEAN_MOTION_DOT = -.1424199E-1
MEAN_MOTION_DDOT = 0

CCSDS_OMM_VERS = 2.0
CREATION_DATE  = 
ORIGINATOR     = 

OBJECT_NAME    = STARLINK-36818
OBJECT_ID      = 2026-035A
CENTER_NAME    = EARTH
REF_FRAME      = TEME
TIME_SYSTEM    = UTC
MEAN_ELEMENT_THEORY = SGP/SGP4

EPOCH          = 2026-02-28T06:00:02.000160
MEAN_MOTION    = 16.05497667
ECCENTRICITY   = .00011015
INCLINATION    = 97.2818
RA_OF_ASC_NODE = 350.7909
ARG_OF_PERICENTER = 125.7607
MEAN_ANOMALY   = 172.2954

EPHEMERIS_TYPE = 0
CLASSIFICATION_TYPE = U
NORAD_CAT_ID   = 67879
ELEMENT_SET_NO = 999
REV_AT_EPOCH   = 223
BSTAR          = -.91556952E-3
MEAN_MOTION_DOT = -.64024E-2
MEAN_MOTION_DDOT = .15270835E-3

CCSDS_OMM_VERS = 2.0
CREATION_DATE  = 
ORIGINATOR     = 

OBJECT_NAME    = STARLINK-36821
OBJECT_ID      = 2026-035B
CENTER_NAME    = EARTH
REF_FRAME      = TEME
TIME_SYSTEM    = UTC
MEAN_ELEMENT_THEORY = SGP/SGP4

EPOCH          = 2026-02-28T06:00:02.000160
MEAN_MOTION    = 16.05695771
ECCENTRICITY   = .00009784
INCLINATION    = 97.2817
RA_OF_ASC_NODE = 350.7927
ARG_OF_PERICENTER = 118.7149
MEAN_ANOMALY   = 182.8406

EPHEMERIS_TYPE = 0
CLASSIFICATION_TYPE = U
NORAD_CAT_ID   = 67880
ELEMENT_SET_NO = 999
REV_AT_EPOCH   = 223
BSTAR          = -.89578368E-3
MEAN_MOTION_DOT = -.634031E-2
MEAN_MOTION_DDOT = .15033384E-3

CCSDS_OMM_VERS = 2.0
CREATION_DATE  = 
ORIGINATOR     = 

OBJECT_NAME    = STARLINK-36808
OBJECT_ID      = 2026-035C
CENTER_NAME    = EARTH
REF_FRAME      = TEME
TIME_SYSTEM    = UTC
MEAN_ELEMENT_THEORY = SGP/SGP4

EPOCH          = 2026-02-28T06:00:02.000160
MEAN_MOTION    = 16.05569046
ECCENTRICITY   = .00011266
INCLINATION    = 97.2816
RA_OF_ASC_NODE = 350.7918
ARG_OF_PERICENTER = 137.6567
MEAN_ANOMALY   = 161.7353

EPHEMERIS_TYPE = 0
CLASSIFICATION_TYPE = U
NORAD_CAT_ID   = 67881
ELEMENT_SET_NO = 999
REV_AT_EPOCH   = 223
BSTAR          = -.912467E-3
MEAN_MOTION_DOT = -.640847E-2
MEAN_MOTION_DDOT = .15311352E-3

CCSDS_OMM_VERS = 2.0
CREATION_DATE  = 
ORIGINATOR     = 

OBJECT_NAME    = STARLINK-36817
OBJECT_ID      = 2026-035D
CENTER_NAME    = EARTH
REF_FRAME      = TEME
TIME_SYSTEM    = UTC
MEAN_ELEMENT_THEORY = SGP/SGP4

EPOCH          = 2026-02-28T06:00:02.000160
MEAN_MOTION    = 16.05953351
ECCENTRICITY   = .00010876
INCLINATION    = 97.2813
RA_OF_ASC_NODE = 350.7943
ARG_OF_PERICENTER = 129.4452
MEAN_ANOMALY   = 176.3435

EPHEMERIS_TYPE = 0
CLASSIFICATION_TYPE = U
NORAD_CAT_ID   = 67882
ELEMENT_SET_NO = 999
REV_AT_EPOCH   = 223
BSTAR          = -.89350904E-3
MEAN_MOTION_DOT = -.642416E-2
MEAN_MOTION_DDOT = .15455693E-3

CCSDS_OMM_VERS = 2.0
CREATION_DATE  = 
ORIGINATOR     = 

OBJECT_NAME    = STARLINK-36856
OBJECT_ID      = 2026-035E
CENTER_NAME    = EARTH
REF_FRAME      = TEME
TIME_SYSTEM    = UTC
MEAN_ELEMENT_THEORY = SGP/SGP4

EPOCH          = 2026-02-28T06:00:02.000160
MEAN_MOTION    = 16.05836660
ECCENTRICITY   = .00009843
INCLINATION    = 97.2815
RA_OF_ASC_NODE = 350.7936
ARG_OF_PERICENTER = 115.8601
MEAN_ANOMALY   = 187.9635

EPHEMERIS_TYPE = 0
CLASSIFICATION_TYPE = U
NORAD_CAT_ID   = 67883
ELEMENT_SET_NO = 999
REV_AT_EPOCH   = 223
BSTAR          = -.89686971E-3
MEAN_MOTION_DOT = -.64025E-2
MEAN_MOTION_DDOT = .15336531E-3

CCSDS_OMM_VERS = 2.0
CREATION_DATE  = 
ORIGINATOR     = 

OBJECT_NAME    = STARLINK-36842
OBJECT_ID      = 2026-035F
CENTER_NAME    = EARTH
REF_FRAME      = TEME
TIME_SYSTEM    = UTC
MEAN_ELEMENT_THEORY = SGP/SGP4

EPOCH          = 2026-02-28T06:00:02.000160
MEAN_MOTION    = 16.06064427
ECCENTRICITY   = .00009406
INCLINATION    = 97.2813
RA_OF_ASC_NODE = 350.7950
ARG_OF_PERICENTER = 111.4260
MEAN_ANOMALY   = 196.1732

EPHEMERIS_TYPE = 0
CLASSIFICATION_TYPE = U
NORAD_CAT_ID   = 67884
ELEMENT_SET_NO = 999
REV_AT_EPOCH   = 223
BSTAR          = -.88217522E-3
MEAN_MOTION_DOT = -.638605E-2
MEAN_MOTION_DDOT = .15307044E-3

CCSDS_OMM_VERS = 2.0
CREATION_DATE  = 
ORIGINATOR     = 

OBJECT_NAME    = STARLINK-36826
OBJECT_ID      = 2026-035G
CENTER_NAME    = EARTH
REF_FRAME      = TEME
TIME_SYSTEM    = UTC
MEAN_ELEMENT_THEORY = SGP/SGP4

EPOCH          = 2026-02-28T06:00:02.000160
MEAN_MOTION    = 16.06148195
ECCENTRICITY   = .00009841
INCLINATION    = 97.2813
RA_OF_ASC_NODE = 350.7957
ARG_OF_PERICENTER = 113.1612
MEAN_ANOMALY   = 195.8557

EPHEMERIS_TYPE = 0
CLASSIFICATION_TYPE = U
NORAD_CAT_ID   = 67885
ELEMENT_SET_NO = 999
REV_AT_EPOCH   = 223
BSTAR          = -.87430521E-3
MEAN_MOTION_DOT = -.636185E-2
MEAN_MOTION_DDOT = .15215158E-3

CCSDS_OMM_VERS = 2.0
CREATION_DATE  = 
ORIGINATOR     = 

OBJECT_NAME    = STARLINK-36390
OBJECT_ID      = 2026-035H
CENTER_NAME    = EARTH
REF_FRAME      = TEME
TIME_SYSTEM    = UTC
MEAN_ELEMENT_THEORY = SGP/SGP4

EPOCH          = 2026-02-28T06:00:02.000160
MEAN_MOTION    = 16.06296426
ECCENTRICITY   = .00010023
INCLINATION    = 97.2811
RA_OF_ASC_NODE = 350.7965
ARG_OF_PERICENTER = 134.5904
MEAN_ANOMALY   = 176.6531

EPHEMERIS_TYPE = 0
CLASSIFICATION_TYPE = U
NORAD_CAT_ID   = 67886
ELEMENT_SET_NO = 999
REV_AT_EPOCH   = 228
BSTAR          = -.82788179E-3
MEAN_MOTION_DOT = -.608059E-2
MEAN_MOTION_DDOT = .14011177E-3

CCSDS_OMM_VERS = 2.0
CREATION_DATE  = 
ORIGINATOR     = 

OBJECT_NAME    = STARLINK-36368
OBJECT_ID      = 2026-035J
CENTER_NAME    = EARTH
REF_FRAME      = TEME
TIME_SYSTEM    = UTC
MEAN_ELEMENT_THEORY = SGP/SGP4

EPOCH          = 2026-02-28T06:00:02.000160
MEAN_MOTION    = 16.06415280
ECCENTRICITY   = .00009404
INCLINATION    = 97.2810
RA_OF_ASC_NODE = 350.7975
ARG_OF_PERICENTER = 114.9428
MEAN_ANOMALY   = 198.3971

EPHEMERIS_TYPE = 0
CLASSIFICATION_TYPE = U
NORAD_CAT_ID   = 67887
ELEMENT_SET_NO = 999
REV_AT_EPOCH   = 223
BSTAR          = -.85320521E-3
MEAN_MOTION_DOT = -.631133E-2
MEAN_MOTION_DDOT = .15041492E-3

