STARLINK-36743          
1 67876U 26034AC  26059.25002315 -.01438432  00000+0 -56880-2 0  9994
2 67876  53.1494 258.5113 0000772  68.6545  13.2314 15.88892981  2349
STARLINK-36784          
1 67877U 26034AD  26059.25002315 -.01432624  00000+0 -56178-2 0  9992
2 67877  53.1495 258.5059 0000756  70.3074  14.3251 15.89045283  2347
STARLINK-36689          
1 67878U 26034AE  26059.25002315 -.01424199  00000+0 -55371-2 0  9995
2 67878  53.1496 258.5005 0000700  75.3835  11.8950 15.89196474  2346
STARLINK-36818          
1 67879U 26035A   26059.25002315 -.00640240  15271-3 -91557-3 0  9990
2 67879  97.2818 350.7909 0001101 125.7607 172.2954 16.05497667  2236
STARLINK-36821          
1 67880U 26035B   26059.25002315 -.00634031  15033-3 -89578-3 0  9999
2 67880  97.2817 350.7927 0000978 118.7149 182.8406 16.05695771  2236
STARLINK-36808          
1 67881U 26035C   26059.25002315 -.00640847  15311-3 -91247-3 0  9997
2 67881  97.2816 350.7918 0001126 137.6567 161.7353 16.05569046  2238
STARLINK-36817          
1 67882U 26035D   26059.25002315 -.00642416  15456-3 -89351-3 0  9995
2 67882  97.2813 350.7943 0001087 129.4452 176.3435 16.05953351  2231
STARLINK-36856          
1 67883U 26035E   26059.25002315 -.00640250  15337-3 -89687-3 0  9990
2 67883  97.2815 350.7936 0000984 115.8601 187.9635 16.05836660  2239
STARLINK-36842          
1 67884U 26035F   26059.25002315 -.00638605  15307-3 -88218-3 0  9998
2 67884  97.2813 350.7950 0000940 111.4260 196.1732 16.06064427  2234
STARLINK-36826          
1 67885U 26035G   26059.25002315 -.00636185  15215-3 -87431-3 0  9994
2 67885  97.2813 350.7957 0000984 113.1612 195.8557 16.06148195  2236
STARLINK-36390          
1 67886U 26035H   26059.25002315 -.00608059  14011-3 -82788-3 0  9997
2 67886  97.2811 350.7965 0001002 134.5904 176.6531 16.06296426  2282
STARLINK-36368          
1 67887U 26035J   26059.25002315 -.00631133  15041-3 -85321-3 0  9997
2 67887  97.2810 350.7975 0000940 114.9428 198.3971 16.06415280  2231
